{
  "norad_id": 60425,
  "name": "STARLINK-32250",
  "history": [
    {
      "epoch": "2026-03-28T13:17:44.413728Z",
      "apogee_km": 475.73896543439423,
      "perigee_km": 474.7548195074369,
      "latitude_deg": 4.055521147238919e-06,
      "longitude_deg": 104.36827624613124,
      "height_km": 476.16020646399136,
      "semi_major_axis_km": 6853.383892470915,
      "eccentricity": 7.18e-05,
      "inclination_deg": 53.1592,
      "raan_deg": 129.7761,
      "arg_perigee_deg": 91.6995,
      "mean_anomaly_deg": 268.4088,
      "mean_motion_rev_day": 15.30189342
    },
    {
      "epoch": "2026-03-29T01:50:09.773664Z",
      "apogee_km": 475.7680144755186,
      "perigee_km": 474.70300038786354,
      "latitude_deg": 2.5167867123478383e-05,
      "longitude_deg": -86.67898957314472,
      "height_km": 476.2167814210658,
      "semi_major_axis_km": 6853.372507431691,
      "eccentricity": 7.77e-05,
      "inclination_deg": 53.1592,
      "raan_deg": 127.3495,
      "arg_perigee_deg": 98.9258,
      "mean_anomaly_deg": 261.1831,
      "mean_motion_rev_day": 15.30193155
    }
  ]
}